CCSDS_OMM_VERS = 2.0
CREATION_DATE  = 
ORIGINATOR     = 

OBJECT_NAME    = STARLINK-35429
OBJECT_ID      = 2025-270C
CENTER_NAME    = EARTH
REF_FRAME      = TEME
TIME_SYSTEM    = UTC
MEAN_ELEMENT_THEORY = SGP/SGP4

EPOCH          = 2025-12-13T06:00:02.000160
MEAN_MOTION    = 15.50697516
ECCENTRICITY   = .00018991
INCLINATION    = 42.9998
RA_OF_ASC_NODE = 189.7488
ARG_OF_PERICENTER = 265.6014
MEAN_ANOMALY   = 95.4383

EPHEMERIS_TYPE = 0
CLASSIFICATION_TYPE = U
NORAD_CAT_ID   = 66590
ELEMENT_SET_NO = 999
REV_AT_EPOCH   = 459
BSTAR          = -.43221995E-2
MEAN_MOTION_DOT = -.247128E-2
MEAN_MOTION_DDOT = 0

CCSDS_OMM_VERS = 2.0
CREATION_DATE  = 
ORIGINATOR     = 

OBJECT_NAME    = STARLINK-36058
OBJECT_ID      = 2025-270D
CENTER_NAME    = EARTH
REF_FRAME      = TEME
TIME_SYSTEM    = UTC
MEAN_ELEMENT_THEORY = SGP/SGP4

EPOCH          = 2025-12-13T06:00:02.000160
MEAN_MOTION    = 15.50806972
ECCENTRICITY   = .0003393
INCLINATION    = 42.9997
RA_OF_ASC_NODE = 189.7393
ARG_OF_PERICENTER = 269.9540
MEAN_ANOMALY   = 94.8289

EPHEMERIS_TYPE = 0
CLASSIFICATION_TYPE = U
NORAD_CAT_ID   = 66591
ELEMENT_SET_NO = 999
REV_AT_EPOCH   = 448
BSTAR          = -.583446E-2
MEAN_MOTION_DOT = -.331353E-2
MEAN_MOTION_DDOT = 0

CCSDS_OMM_VERS = 2.0
CREATION_DATE  = 
ORIGINATOR     = 

OBJECT_NAME    = STARLINK-36066
OBJECT_ID      = 2025-270E
CENTER_NAME    = EARTH
REF_FRAME      = TEME
TIME_SYSTEM    = UTC
MEAN_ELEMENT_THEORY = SGP/SGP4

EPOCH          = 2025-12-13T06:00:02.000160
MEAN_MOTION    = 15.46786343
ECCENTRICITY   = .00015724
INCLINATION    = 42.9999
RA_OF_ASC_NODE = 189.7482
ARG_OF_PERICENTER = 262.7472
MEAN_ANOMALY   = 98.2296

EPHEMERIS_TYPE = 0
CLASSIFICATION_TYPE = U
NORAD_CAT_ID   = 66592
ELEMENT_SET_NO = 999
REV_AT_EPOCH   = 438
BSTAR          = -.45826292E-1
MEAN_MOTION_DOT = -.2088457E-1
MEAN_MOTION_DDOT = 0

CCSDS_OMM_VERS = 2.0
CREATION_DATE  = 
ORIGINATOR     = 

OBJECT_NAME    = STARLINK-36031
OBJECT_ID      = 2025-270F
CENTER_NAME    = EARTH
REF_FRAME      = TEME
TIME_SYSTEM    = UTC
MEAN_ELEMENT_THEORY = SGP/SGP4

EPOCH          = 2025-12-13T06:00:02.000160
MEAN_MOTION    = 15.50665115
ECCENTRICITY   = .00018265
INCLINATION    = 43.0000
RA_OF_ASC_NODE = 189.7292
ARG_OF_PERICENTER = 266.8816
MEAN_ANOMALY   = 101.8358

EPHEMERIS_TYPE = 0
CLASSIFICATION_TYPE = U
NORAD_CAT_ID   = 66593
ELEMENT_SET_NO = 999
REV_AT_EPOCH   = 448
BSTAR          = -.34094015E-2
MEAN_MOTION_DOT = -.196041E-2
MEAN_MOTION_DDOT = 0

CCSDS_OMM_VERS = 2.0
CREATION_DATE  = 
ORIGINATOR     = 

OBJECT_NAME    = STARLINK-36032
OBJECT_ID      = 2025-270G
CENTER_NAME    = EARTH
REF_FRAME      = TEME
TIME_SYSTEM    = UTC
MEAN_ELEMENT_THEORY = SGP/SGP4

EPOCH          = 2025-12-13T06:00:02.000160
MEAN_MOTION    = 15.50756043
ECCENTRICITY   = .00016139
INCLINATION    = 43.0000
RA_OF_ASC_NODE = 189.7250
ARG_OF_PERICENTER = 272.5431
MEAN_ANOMALY   = 98.0754

EPHEMERIS_TYPE = 0
CLASSIFICATION_TYPE = U
NORAD_CAT_ID   = 66594
ELEMENT_SET_NO = 999
REV_AT_EPOCH   = 422
BSTAR          = -.62266205E-2
MEAN_MOTION_DOT = -.351919E-2
MEAN_MOTION_DDOT = 0

CCSDS_OMM_VERS = 2.0
CREATION_DATE  = 
ORIGINATOR     = 

OBJECT_NAME    = STARLINK-35711
OBJECT_ID      = 2025-270H
CENTER_NAME    = EARTH
REF_FRAME      = TEME
TIME_SYSTEM    = UTC
MEAN_ELEMENT_THEORY = SGP/SGP4

EPOCH          = 2025-12-13T06:00:02.000160
MEAN_MOTION    = 15.50791947
ECCENTRICITY   = .00013473
INCLINATION    = 42.9999
RA_OF_ASC_NODE = 189.7201
ARG_OF_PERICENTER = 261.9239
MEAN_ANOMALY   = 110.5942

EPHEMERIS_TYPE = 0
CLASSIFICATION_TYPE = U
NORAD_CAT_ID   = 66595
ELEMENT_SET_NO = 999
REV_AT_EPOCH   = 459
BSTAR          = -.71802916E-2
MEAN_MOTION_DOT = -.403633E-2
MEAN_MOTION_DDOT = 0

CCSDS_OMM_VERS = 2.0
CREATION_DATE  = 
ORIGINATOR     = 

OBJECT_NAME    = STARLINK-35811
OBJECT_ID      = 2025-270J
CENTER_NAME    = EARTH
REF_FRAME      = TEME
TIME_SYSTEM    = UTC
MEAN_ELEMENT_THEORY = SGP/SGP4

EPOCH          = 2025-12-13T06:00:02.000160
MEAN_MOTION    = 15.42699092
ECCENTRICITY   = .00015847
INCLINATION    = 42.9996
RA_OF_ASC_NODE = 189.7759
ARG_OF_PERICENTER = 269.0810
MEAN_ANOMALY   = 80.1908

EPHEMERIS_TYPE = 0
CLASSIFICATION_TYPE = U
NORAD_CAT_ID   = 66596
ELEMENT_SET_NO = 999
REV_AT_EPOCH   = 459
BSTAR          = -.53732896E-1
MEAN_MOTION_DOT = -.2122453E-1
MEAN_MOTION_DDOT = 0

CCSDS_OMM_VERS = 2.0
CREATION_DATE  = 
ORIGINATOR     = 

OBJECT_NAME    = STARLINK-35820
OBJECT_ID      = 2025-270K
CENTER_NAME    = EARTH
REF_FRAME      = TEME
TIME_SYSTEM    = UTC
MEAN_ELEMENT_THEORY = SGP/SGP4

EPOCH          = 2025-12-13T06:00:02.000160
MEAN_MOTION    = 15.48725359
ECCENTRICITY   = .00018623
INCLINATION    = 43.0000
RA_OF_ASC_NODE = 189.7129
ARG_OF_PERICENTER = 272.0721
MEAN_ANOMALY   = 102.9049

EPHEMERIS_TYPE = 0
CLASSIFICATION_TYPE = U
NORAD_CAT_ID   = 66597
ELEMENT_SET_NO = 999
REV_AT_EPOCH   = 459
BSTAR          = -.43201594E-1
MEAN_MOTION_DOT = -.2105991E-1
MEAN_MOTION_DDOT = 0

CCSDS_OMM_VERS = 2.0
CREATION_DATE  = 
ORIGINATOR     = 

OBJECT_NAME    = STARLINK-35981
OBJECT_ID      = 2025-270L
CENTER_NAME    = EARTH
REF_FRAME      = TEME
TIME_SYSTEM    = UTC
MEAN_ELEMENT_THEORY = SGP/SGP4

EPOCH          = 2025-12-13T06:00:02.000160
MEAN_MOTION    = 15.50672913
ECCENTRICITY   = .00016675
INCLINATION    = 43.0000
RA_OF_ASC_NODE = 189.7055
ARG_OF_PERICENTER = 263.0590
MEAN_ANOMALY   = 115.2386

EPHEMERIS_TYPE = 0
CLASSIFICATION_TYPE = U
NORAD_CAT_ID   = 66598
ELEMENT_SET_NO = 999
REV_AT_EPOCH   = 432
BSTAR          = -.35886268E-2
MEAN_MOTION_DOT = -.206119E-2
MEAN_MOTION_DDOT = 0

CCSDS_OMM_VERS = 2.0
CREATION_DATE  = 
ORIGINATOR     = 

OBJECT_NAME    = STARLINK-35930
OBJECT_ID      = 2025-270M
CENTER_NAME    = EARTH
REF_FRAME      = TEME
TIME_SYSTEM    = UTC
MEAN_ELEMENT_THEORY = SGP/SGP4

EPOCH          = 2025-12-13T06:00:02.000160
MEAN_MOTION    = 15.50711397
ECCENTRICITY   = .00005622
INCLINATION    = 42.9999
RA_OF_ASC_NODE = 189.7014
ARG_OF_PERICENTER = 266.4002
MEAN_ANOMALY   = 113.8059

EPHEMERIS_TYPE = 0
CLASSIFICATION_TYPE = U
NORAD_CAT_ID   = 66599
ELEMENT_SET_NO = 999
REV_AT_EPOCH   = 448
BSTAR          = -.47240367E-2
MEAN_MOTION_DOT = -.269401E-2
MEAN_MOTION_DDOT = 0

CCSDS_OMM_VERS = 2.0
CREATION_DATE  = 
ORIGINATOR     = 

OBJECT_NAME    = STARLINK-35980
OBJECT_ID      = 2025-270N
CENTER_NAME    = EARTH
REF_FRAME      = TEME
TIME_SYSTEM    = UTC
MEAN_ELEMENT_THEORY = SGP/SGP4

EPOCH          = 2025-12-13T06:00:02.000160
MEAN_MOTION    = 15.50650481
ECCENTRICITY   = .0002868
INCLINATION    = 42.9999
RA_OF_ASC_NODE = 189.6955
ARG_OF_PERICENTER = 267.1264
MEAN_ANOMALY   = 115.0118

EPHEMERIS_TYPE = 0
CLASSIFICATION_TYPE = U
NORAD_CAT_ID   = 66600
ELEMENT_SET_NO = 999
REV_AT_EPOCH   = 438
BSTAR          = -.2942873E-2
MEAN_MOTION_DOT = -.169763E-2
MEAN_MOTION_DDOT = 0

CCSDS_OMM_VERS = 2.0
CREATION_DATE  = 
ORIGINATOR     = 

OBJECT_NAME    = STARLINK-35978
OBJECT_ID      = 2025-270P
CENTER_NAME    = EARTH
REF_FRAME      = TEME
TIME_SYSTEM    = UTC
MEAN_ELEMENT_THEORY = SGP/SGP4

EPOCH          = 2025-12-13T06:00:02.000160
MEAN_MOTION    = 15.50668125
ECCENTRICITY   = .00015132
INCLINATION    = 42.9999
RA_OF_ASC_NODE = 189.6908
ARG_OF_PERICENTER = 277.4216
MEAN_ANOMALY   = 106.6193

EPHEMERIS_TYPE = 0
CLASSIFICATION_TYPE = U
NORAD_CAT_ID   = 66601
ELEMENT_SET_NO = 999
REV_AT_EPOCH   = 432
BSTAR          = -.3203892E-2
MEAN_MOTION_DOT = -.184525E-2
MEAN_MOTION_DDOT = 0

