STARLINK-35429          
1 66590U 25270C   25347.25002315 -.00247128  00000+0 -43222-2 0  9991
2 66590  42.9998 189.7488 0001899 265.6014  95.4383 15.50697516  4590
STARLINK-36058          
1 66591U 25270D   25347.25002315 -.00331353  00000+0 -58345-2 0  9998
2 66591  42.9997 189.7393 0003393 269.9540  94.8289 15.50806972  4481
STARLINK-36066          
1 66592U 25270E   25347.25002315 -.02088457  00000+0 -45826-1 0  9994
2 66592  42.9999 189.7482 0001572 262.7472  98.2296 15.46786343  4384
STARLINK-36031          
1 66593U 25270F   25347.25002315 -.00196041  00000+0 -34094-2 0  9998
2 66593  43.0000 189.7292 0001826 266.8816 101.8358 15.50665115  4487
STARLINK-36032          
1 66594U 25270G   25347.25002315 -.00351919  00000+0 -62266-2 0  9998
2 66594  43.0000 189.7250 0001613 272.5431  98.0754 15.50756043  4223
STARLINK-35711          
1 66595U 25270H   25347.25002315 -.00403633  00000+0 -71803-2 0  9997
2 66595  42.9999 189.7201 0001347 261.9239 110.5942 15.50791947  4598
STARLINK-35811          
1 66596U 25270J   25347.25002315 -.02122453  00000+0 -53733-1 0  9999
2 66596  42.9996 189.7759 0001584 269.0810  80.1908 15.42699092  4594
STARLINK-35820          
1 66597U 25270K   25347.25002315 -.02105991  00000+0 -43202-1 0  9998
2 66597  43.0000 189.7129 0001862 272.0721 102.9049 15.48725359  4599
STARLINK-35981          
1 66598U 25270L   25347.25002315 -.00206119  00000+0 -35886-2 0  9991
2 66598  43.0000 189.7055 0001667 263.0590 115.2386 15.50672913  4327
STARLINK-35930          
1 66599U 25270M   25347.25002315 -.00269401  00000+0 -47240-2 0  9992
2 66599  42.9999 189.7014 0000562 266.4002 113.8059 15.50711397  4484
STARLINK-35980          
1 66600U 25270N   25347.25002315 -.00169763  00000+0 -29429-2 0  9994
2 66600  42.9999 189.6955 0002868 267.1264 115.0118 15.50650481  4384
STARLINK-35978          
1 66601U 25270P   25347.25002315 -.00184525  00000+0 -32039-2 0  9999
2 66601  42.9999 189.6908 0001513 277.4216 106.6193 15.50668125  4327
